NORAD_CAT_ID,OBJECT_NAME,OBJECT_TYPE,EPOCH,MEAN_MOTION,ECCENTRICITY,INCLINATION,RA_OF_ASC_NODE,ARG_OF_PERICENTER,MEAN_ANOMALY,BSTAR,MEAN_MOTION_DOT,MEAN_MOTION_DDOT,TLE_LINE0,TLE_LINE1,TLE_LINE2,SEMIMAJOR_AXIS,PERIOD,APOGEE,PERIGEE,DECAYED
49440.0,STARLINK-3105,PAYLOAD,2023-11-02 14:44:19,15.08839809,0.0001397,53.2177,101.1728,96.5187,263.5964,8.4312e-05,1.054e-05,0.0,0 STARLINK-3105,1 49440U 21104AJ  23306.61411873  .00001054  00000-0  84312-4 0  9996,2 49440  53.2177 101.1728 0001397  96.5187 263.5964 15.08839809109370,6917.881,95.438,540.712,538.78,0.0
49440.0,STARLINK-3105,PAYLOAD,2023-11-02 19:30:28,15.0885089,0.0001472,53.2177,100.2809,88.2832,271.8329,-6.5605e-06,-3.92e-06,0.0,0 STARLINK-3105,1 49440U 21104AJ  23306.81283389 -.00000392  00000-0 -65605-5 0  9998,2 49440  53.2177 100.2809 0001472  88.2832 271.8329 15.08850890109403,6917.847,95.437,540.73,538.694,0.0
49440.0,STARLINK-3105,PAYLOAD,2023-11-03 03:27:24,15.08843144,0.0001321,53.2169,98.7919,90.2417,269.8727,2.3744e-05,9e-07,0.0,0 STARLINK-3105,1 49440U 21104AJ  23307.14403762  .00000090  00000-0  23744-4 0  9994,2 49440  53.2169  98.7919 0001321  90.2417 269.8727 15.08843144110520,6917.871,95.437,540.65,538.822,0.0
49440.0,STARLINK-3105,PAYLOAD,2023-11-03 14:35:07,15.08836237,0.0001347,53.2173,96.7095,87.3807,272.734,7.7399e-05,9.44e-06,0.0,0 STARLINK-3105,1 49440U 21104AJ  23307.60772192  .00000944  00000-0  77399-4 0  9994,2 49440  53.2173  96.7095 0001347  87.3807 272.7340 15.08836237109523,6917.892,95.438,540.689,538.825,0.0
49440.0,STARLINK-3105,PAYLOAD,2023-11-03 19:21:15,15.0885045,0.0001595,53.2173,95.8169,100.9987,259.1185,-8.3509e-06,-4.21e-06,0.0,0 STARLINK-3105,1 49440U 21104AJ  23307.80643441 -.00000421  00000-0 -83509-5 0  9993,2 49440  53.2173  95.8169 0001595 100.9987 259.1185 15.08850450109553,6917.848,95.437,540.817,538.61,0.0
49440.0,STARLINK-3105,PAYLOAD,2023-11-04 09:39:44,15.08838734,0.0001389,53.217,93.1424,87.3798,272.7353,4.0573e-05,3.58e-06,0.0,0 STARLINK-3105,1 49440U 21104AJ  23308.40260135  .00000358  00000-0  40573-4 0  9995,2 49440  53.2170  93.1424 0001389  87.3798 272.7353 15.08838734110713,6917.884,95.438,540.71,538.788,0.0
49440.0,STARLINK-3105,PAYLOAD,2023-11-04 14:25:53,15.08841745,0.0001404,53.2169,92.2506,87.3403,272.775,6.0766e-05,6.79e-06,0.0,0 STARLINK-3105,1 49440U 21104AJ  23308.60131889  .00000679  00000-0  60766-4 0  9992,2 49440  53.2169  92.2506 0001404  87.3403 272.7750 15.08841745109673,6917.875,95.437,540.711,538.769,0.0
49440.0,STARLINK-3105,PAYLOAD,2023-11-04 16:01:16,15.08846686,0.0001388,53.2168,91.9528,86.9943,273.1208,2.6568e-05,1.35e-06,0.0,0 STARLINK-3105,1 49440U 21104AJ  23308.66755677  .00000135  00000-0  26568-4 0  9994,2 49440  53.2168  91.9528 0001388  86.9943 273.1208 15.08846686109680,6917.86,95.437,540.685,538.765,0.0
49440.0,STARLINK-3105,PAYLOAD,2023-11-05 03:08:58,15.0885044,0.0001372,53.2172,89.8712,93.5815,266.5334,7.9918e-05,9.85e-06,0.0,0 STARLINK-3105,1 49440U 21104AJ  23309.13123098  .00000985  00000-0  79918-4 0  9993,2 49440  53.2172  89.8712 0001372  93.5815 266.5334 15.08850440110828,6917.848,95.437,540.663,538.764,0.0
49440.0,STARLINK-3105,PAYLOAD,2023-11-05 14:16:39,15.08852988,0.0001464,53.2169,87.7907,88.6884,271.4275,0.00019056,2.747e-05,0.0,0 STARLINK-3105,1 49440U 21104AJ  23309.59490625  .00002747  00000-0  19056-3 0  9990,2 49440  53.2169  87.7907 0001464  88.6884 271.4275 15.08852988109826,6917.841,95.437,540.718,538.693,0.0
49440.0,STARLINK-3105,PAYLOAD,2023-11-05 15:52:02,15.08857037,0.0001404,53.2173,87.4918,96.3857,263.7295,0.00024069,3.546e-05,0.0,0 STARLINK-3105,1 49440U 21104AJ  23309.66114217  .00003546  00000-0  24069-3 0  9996,2 49440  53.2173  87.4918 0001404  96.3857 263.7295 15.08857037109837,6917.828,95.436,540.665,538.722,0.0
49440.0,STARLINK-3105,PAYLOAD,2023-11-06 14:07:28,15.08811541,0.0001595,53.2162,83.3289,38.2881,321.8224,-0.00041671,-6.909e-05,0.0,0 STARLINK-3105,1 49440U 21104AJ  23310.58852873 -.00006909  00000-0 -41671-3 0  9992,2 49440  53.2162  83.3289 0001595  38.2881 321.8224 15.08811541109977,6917.967,95.439,540.936,538.729,0.0
49440.0,STARLINK-3105,PAYLOAD,2023-11-06 15:42:52,15.08800686,0.0001428,53.2164,83.0312,92.0435,268.0721,-0.00059496,-9.734e-05,0.0,0 STARLINK-3105,1 49440U 21104AJ  23310.65477282 -.00009734  00000-0 -59496-3 0  9990,2 49440  53.2164  83.0312 0001428  92.0435 268.0721 15.08800686111055,6918.001,95.44,540.853,538.878,0.0
49440.0,STARLINK-3105,PAYLOAD,2023-11-07 09:12:07,15.08808142,0.0001345,53.216,79.7596,93.176,266.9386,-0.00040503,-6.722e-05,0.0,0 STARLINK-3105,1 49440U 21104AJ  23311.38342180 -.00006722  00000-0 -40503-3 0  9992,2 49440  53.2160  79.7596 0001345  93.1760 266.9386 15.08808142111169,6917.978,95.44,540.773,538.912,0.0
49440.0,STARLINK-3105,PAYLOAD,2023-11-07 13:58:16,15.08818301,0.000154,53.2165,78.8677,99.2628,260.8538,-8.1623e-05,-1.586e-05,0.0,0 STARLINK-3105,1 49440U 21104AJ  23311.58213955 -.00001586  00000-0 -81623-4 0  9993,2 49440  53.2165  78.8677 0001540  99.2628 260.8538 15.08818301110126,6917.947,95.439,540.877,538.746,0.0
49440.0,STARLINK-3105,PAYLOAD,2023-11-07 15:33:40,15.08819194,0.0001423,53.2162,78.5713,82.3528,277.7625,-2.27e-05,-6.49e-06,0.0,0 STARLINK-3105,1 49440U 21104AJ  23311.64838100 -.00000649  00000-0 -22700-4 0  9995,2 49440  53.2162  78.5713 0001423  82.3528 277.7625 15.08819194111208,6917.944,95.439,540.793,538.825,0.0
49440.0,STARLINK-3105,PAYLOAD,2023-11-08 12:13:40,15.08854796,0.0001779,53.2177,74.7121,92.4792,267.6404,0.00092887,0.00014532,0.0,0 STARLINK-3105,1 49440U 21104AJ  23312.50949585  .00014532  00000-0  92887-3 0  9997,2 49440  53.2177  74.7121 0001779  92.4792 267.6404 15.08854796111338,6917.835,95.437,540.931,538.469,0.0
49440.0,STARLINK-3105,PAYLOAD,2023-11-08 13:49:02,15.08858722,0.0001331,53.2173,74.4069,95.5642,264.5502,0.00074321,0.00011566,0.0,0 STARLINK-3105,1 49440U 21104AJ  23312.57572604  .00011566  00000-0  74321-3 0  9995,2 49440  53.2173  74.4069 0001331  95.5642 264.5502 15.08858722110274,6917.823,95.436,540.609,538.767,0.0
49440.0,STARLINK-3105,PAYLOAD,2023-11-08 15:24:26,15.08852219,0.0001421,53.2176,74.1169,100.4805,259.6347,0.0010261,0.00016086,0.0,0 STARLINK-3105,1 49440U 21104AJ  23312.64197251  .00016086  00000-0  10261-2 0  9998,2 49440  53.2176  74.1169 0001421 100.4805 259.6347 15.08852219110280,6917.843,95.437,540.691,538.725,0.0
49440.0,STARLINK-3105,PAYLOAD,2023-11-09 00:56:45,15.08843181,0.0001276,53.2173,72.3315,100.6682,259.4453,0.00053901,8.302e-05,0.0,0 STARLINK-3105,1 49440U 21104AJ  23313.03941496  .00008302  00000-0  53901-3 0  9991,2 49440  53.2173  72.3315 0001276 100.6682 259.4453 15.08843181111413,6917.871,95.437,540.618,538.853,0.0
49440.0,STARLINK-3105,PAYLOAD,2023-11-09 12:04:27,15.08836766,0.0001275,53.2179,70.246,96.1154,263.9984,7.9464e-05,9.77e-06,0.0,0 STARLINK-3105,1 49440U 21104AJ  23313.50309715  .00000977  00000-0  79464-4 0  9998,2 49440  53.2179  70.2460 0001275  96.1154 263.9984 15.08836766111486,6917.89,95.438,540.637,538.873,0.0
49440.0,STARLINK-3105,PAYLOAD,2023-11-09 13:39:50,15.0884001,0.0001436,53.2176,69.9445,75.6396,284.4755,9.2877e-05,1.19e-05,0.0,0 STARLINK-3105,1 49440U 21104AJ  23313.56933625  .00001190  00000-0  92877-4 0  9998,2 49440  53.2176  69.9445 0001436  75.6396 284.4755 15.08840010110424,6917.88,95.438,540.739,538.752,0.0
49440.0,STARLINK-3105,PAYLOAD,2023-11-09 15:15:13,15.08849421,0.000138,53.2173,69.6513,89.5216,270.5934,0.00010329,1.357e-05,0.0,0 STARLINK-3105,1 49440U 21104AJ  23313.63557027  .00001357  00000-0  10329-3 0  9990,2 49440  53.2173  69.6513 0001380  89.5216 270.5934 15.08849421111507,6917.852,95.437,540.671,538.762,0.0
49440.0,STARLINK-3105,PAYLOAD,2023-11-10 11:55:13,15.08844506,0.0001525,53.2175,65.7859,87.6227,272.494,-3.8122e-06,-3.49e-06,0.0,0 STARLINK-3105,1 49440U 21104AJ  23314.49668934 -.00000349  00000-0 -38122-5 0  9990,2 49440  53.2175  65.7859 0001525  87.6227 272.4940 15.08844506111632,6917.867,95.437,540.787,538.677,0.0
49440.0,STARLINK-3105,PAYLOAD,2023-11-10 13:30:36,15.08853114,0.00016,53.2184,65.4884,89.843,270.2746,-0.00012359,-2.255e-05,0.0,0 STARLINK-3105,1 49440U 21104AJ  23314.56292557 -.00002255  00000-0 -12359-3 0  9992,2 49440  53.2184  65.4884 0001600  89.8430 270.2746 15.08853114110578,6917.84,95.437,540.812,538.598,0.0
49440.0,STARLINK-3105,PAYLOAD,2023-11-10 15:05:59,15.0884954,0.0001565,53.218,65.1907,86.5272,273.5899,-1.8271e-05,-5.79e-06,0.0,0 STARLINK-3105,1 49440U 21104AJ  23314.62916622 -.00000579  00000-0 -18271-4 0  9992,2 49440  53.2180  65.1907 0001565  86.5272 273.5899 15.08849540110589,6917.851,95.437,540.799,538.634,0.0
49440.0,STARLINK-3105,PAYLOAD,2023-11-11 11:46:01,15.08839429,0.0001455,53.2182,61.3265,90.8327,269.2832,0.00013525,1.865e-05,0.0,0 STARLINK-3105,1 49440U 21104AJ  23315.49029224  .00001865  00000-0  13525-3 0  9994,2 49440  53.2182  61.3265 0001455  90.8327 269.2832 15.08839429111780,6917.882,95.438,540.754,538.741,0.0
49440.0,STARLINK-3105,PAYLOAD,2023-11-11 13:21:24,15.08843037,0.0001349,53.2167,61.0294,91.0212,269.0935,6.9918e-05,8.25e-06,0.0,0 STARLINK-3105,1 49440U 21104AJ  23315.55652950  .00000825  00000-0  69918-4 0  9992,2 49440  53.2167  61.0294 0001349  91.0212 269.0935 15.08843037110725,6917.871,95.437,540.669,538.803,0.0
49440.0,STARLINK-3105,PAYLOAD,2023-11-11 14:56:47,15.0884532,0.0001415,53.2174,60.7319,89.6417,270.4738,0.00010715,1.418e-05,0.0,0 STARLINK-3105,1 49440U 21104AJ  23315.62276850  .00001418  00000-0  10715-3 0  9990,2 49440  53.2174  60.7319 0001415  89.6417 270.4738 15.08845320110736,6917.864,95.437,540.708,538.75,0.0
49440.0,STARLINK-3105,PAYLOAD,2023-11-12 13:12:11,15.0884101,0.0001477,53.2176,56.5667,88.1352,271.9809,7.6637e-05,9.32e-06,0.0,0 STARLINK-3105,1 49440U 21104AJ  23316.55013259  .00000932  00000-0  76637-4 0  9991,2 49440  53.2176  56.5667 0001477  88.1352 271.9809 15.08841010110879,6917.877,95.437,540.764,538.721,0.0
